CCSDS_OMM_VERS = 2.0
CREATION_DATE  = 
ORIGINATOR     = 

OBJECT_NAME    = ISS (ZARYA)
OBJECT_ID      = 1998-067A
CENTER_NAME    = EARTH
REF_FRAME      = TEME
TIME_SYSTEM    = UTC
MEAN_ELEMENT_THEORY = SGP/SGP4

EPOCH          = 2026-02-17T04:23:19.361472
MEAN_MOTION    = 15.48657976
ECCENTRICITY   = .00110184
INCLINATION    = 51.6319
RA_OF_ASC_NODE = 173.7204
ARG_OF_PERICENTER = 107.0393
MEAN_ANOMALY   = 253.1803

EPHEMERIS_TYPE = 0
CLASSIFICATION_TYPE = U
NORAD_CAT_ID   = 25544
ELEMENT_SET_NO = 999
REV_AT_EPOCH   = 55315
BSTAR          = .18517944E-3
MEAN_MOTION_DOT = .966E-4
MEAN_MOTION_DDOT = 0

CCSDS_OMM_VERS = 2.0
CREATION_DATE  = 
ORIGINATOR     = 

OBJECT_NAME    = CSS (TIANHE)
OBJECT_ID      = 2021-035A
CENTER_NAME    = EARTH
REF_FRAME      = TEME
TIME_SYSTEM    = UTC
MEAN_ELEMENT_THEORY = SGP/SGP4

EPOCH          = 2026-02-17T05:34:10.349472
MEAN_MOTION    = 15.59770251
ECCENTRICITY   = .00041623
INCLINATION    = 41.4683
RA_OF_ASC_NODE = 332.5551
ARG_OF_PERICENTER = 122.3722
MEAN_ANOMALY   = 237.7519

EPHEMERIS_TYPE = 0
CLASSIFICATION_TYPE = U
NORAD_CAT_ID   = 48274
ELEMENT_SET_NO = 999
REV_AT_EPOCH   = 27441
BSTAR          = .35627248E-3
MEAN_MOTION_DOT = .29154E-3
MEAN_MOTION_DDOT = 0

CCSDS_OMM_VERS = 2.0
CREATION_DATE  = 
ORIGINATOR     = 

OBJECT_NAME    = ISS (NAUKA)
OBJECT_ID      = 2021-066A
CENTER_NAME    = EARTH
REF_FRAME      = TEME
TIME_SYSTEM    = UTC
MEAN_ELEMENT_THEORY = SGP/SGP4

EPOCH          = 2026-02-17T04:23:19.361472
MEAN_MOTION    = 15.48657976
ECCENTRICITY   = .00110184
INCLINATION    = 51.6319
RA_OF_ASC_NODE = 173.7204
ARG_OF_PERICENTER = 107.0393
MEAN_ANOMALY   = 253.1803

EPHEMERIS_TYPE = 0
CLASSIFICATION_TYPE = U
NORAD_CAT_ID   = 49044
ELEMENT_SET_NO = 999
REV_AT_EPOCH   = 23044
BSTAR          = .18517944E-3
MEAN_MOTION_DOT = .966E-4
MEAN_MOTION_DDOT = 0

CCSDS_OMM_VERS = 2.0
CREATION_DATE  = 
ORIGINATOR     = 

OBJECT_NAME    = FREGAT DEB
OBJECT_ID      = 2011-037PF
CENTER_NAME    = EARTH
REF_FRAME      = TEME
TIME_SYSTEM    = UTC
MEAN_ELEMENT_THEORY = SGP/SGP4

EPOCH          = 2026-02-17T00:56:21.080832
MEAN_MOTION    = 12.38826834
ECCENTRICITY   = .09409272
INCLINATION    = 51.6522
RA_OF_ASC_NODE = 2.5988
ARG_OF_PERICENTER = 11.9451
MEAN_ANOMALY   = 350.2139

EPHEMERIS_TYPE = 0
CLASSIFICATION_TYPE = U
NORAD_CAT_ID   = 49271
ELEMENT_SET_NO = 999
REV_AT_EPOCH   = 21013
BSTAR          = .60296196E-1
MEAN_MOTION_DOT = .38169E-3
MEAN_MOTION_DDOT = 0

CCSDS_OMM_VERS = 2.0
CREATION_DATE  = 
ORIGINATOR     = 

OBJECT_NAME    = CSS (WENTIAN)
OBJECT_ID      = 2022-085A
CENTER_NAME    = EARTH
REF_FRAME      = TEME
TIME_SYSTEM    = UTC
MEAN_ELEMENT_THEORY = SGP/SGP4

EPOCH          = 2026-02-17T05:34:10.349472
MEAN_MOTION    = 15.59770251
ECCENTRICITY   = .00041623
INCLINATION    = 41.4683
RA_OF_ASC_NODE = 332.5551
ARG_OF_PERICENTER = 122.3722
MEAN_ANOMALY   = 237.7519

EPHEMERIS_TYPE = 0
CLASSIFICATION_TYPE = U
NORAD_CAT_ID   = 53239
ELEMENT_SET_NO = 999
REV_AT_EPOCH   = 17384
BSTAR          = .35627248E-3
MEAN_MOTION_DOT = .29154E-3
MEAN_MOTION_DDOT = 0

CCSDS_OMM_VERS = 2.0
CREATION_DATE  = 
ORIGINATOR     = 

OBJECT_NAME    = CSS (MENGTIAN)
OBJECT_ID      = 2022-143A
CENTER_NAME    = EARTH
REF_FRAME      = TEME
TIME_SYSTEM    = UTC
MEAN_ELEMENT_THEORY = SGP/SGP4

EPOCH          = 2026-02-17T05:34:10.349472
MEAN_MOTION    = 15.59770251
ECCENTRICITY   = .00041623
INCLINATION    = 41.4683
RA_OF_ASC_NODE = 332.5551
ARG_OF_PERICENTER = 122.3722
MEAN_ANOMALY   = 237.7519

EPHEMERIS_TYPE = 0
CLASSIFICATION_TYPE = U
NORAD_CAT_ID   = 54216
ELEMENT_SET_NO = 999
REV_AT_EPOCH   = 15864
BSTAR          = .35627248E-3
MEAN_MOTION_DOT = .29154E-3
MEAN_MOTION_DDOT = 0

CCSDS_OMM_VERS = 2.0
CREATION_DATE  = 
ORIGINATOR     = 

OBJECT_NAME    = PROGRESS-MS 31
OBJECT_ID      = 2025-146A
CENTER_NAME    = EARTH
REF_FRAME      = TEME
TIME_SYSTEM    = UTC
MEAN_ELEMENT_THEORY = SGP/SGP4

EPOCH          = 2026-02-17T04:23:19.361472
MEAN_MOTION    = 15.48657976
ECCENTRICITY   = .00110184
INCLINATION    = 51.6319
RA_OF_ASC_NODE = 173.7204
ARG_OF_PERICENTER = 107.0393
MEAN_ANOMALY   = 253.1803

EPHEMERIS_TYPE = 0
CLASSIFICATION_TYPE = U
NORAD_CAT_ID   = 64751
ELEMENT_SET_NO = 999
REV_AT_EPOCH   = 675
BSTAR          = .18517944E-3
MEAN_MOTION_DOT = .966E-4
MEAN_MOTION_DDOT = 0

CCSDS_OMM_VERS = 2.0
CREATION_DATE  = 
ORIGINATOR     = 

OBJECT_NAME    = TIANZHOU-9
OBJECT_ID      = 2025-149A
CENTER_NAME    = EARTH
REF_FRAME      = TEME
TIME_SYSTEM    = UTC
MEAN_ELEMENT_THEORY = SGP/SGP4

EPOCH          = 2026-02-17T05:34:10.349472
MEAN_MOTION    = 15.59770251
ECCENTRICITY   = .00041623
INCLINATION    = 41.4683
RA_OF_ASC_NODE = 332.5551
ARG_OF_PERICENTER = 122.3722
MEAN_ANOMALY   = 237.7519

EPHEMERIS_TYPE = 0
CLASSIFICATION_TYPE = U
NORAD_CAT_ID   = 64786
ELEMENT_SET_NO = 999
REV_AT_EPOCH   = 25530
BSTAR          = .35627248E-3
MEAN_MOTION_DOT = .29154E-3
MEAN_MOTION_DDOT = 0

CCSDS_OMM_VERS = 2.0
CREATION_DATE  = 
ORIGINATOR     = 

OBJECT_NAME    = DRAGON CRS-33
OBJECT_ID      = 2025-186A
CENTER_NAME    = EARTH
REF_FRAME      = TEME
TIME_SYSTEM    = UTC
MEAN_ELEMENT_THEORY = SGP/SGP4

EPOCH          = 2026-02-17T04:23:19.361472
MEAN_MOTION    = 15.48657976
ECCENTRICITY   = .00110184
INCLINATION    = 51.6319
RA_OF_ASC_NODE = 173.7204
ARG_OF_PERICENTER = 107.0393
MEAN_ANOMALY   = 253.1803

EPHEMERIS_TYPE = 0
CLASSIFICATION_TYPE = U
NORAD_CAT_ID   = 65304
ELEMENT_SET_NO = 999
REV_AT_EPOCH   = 11
BSTAR          = .18517944E-3
MEAN_MOTION_DOT = .966E-4
MEAN_MOTION_DDOT = 0

CCSDS_OMM_VERS = 2.0
CREATION_DATE  = 
ORIGINATOR     = 

OBJECT_NAME    = PROGRESS-MS 32
OBJECT_ID      = 2025-204A
CENTER_NAME    = EARTH
REF_FRAME      = TEME
TIME_SYSTEM    = UTC
MEAN_ELEMENT_THEORY = SGP/SGP4

EPOCH          = 2026-02-17T04:23:19.361472
MEAN_MOTION    = 15.48657976
ECCENTRICITY   = .00110184
INCLINATION    = 51.6319
RA_OF_ASC_NODE = 173.7204
ARG_OF_PERICENTER = 107.0393
MEAN_ANOMALY   = 253.1803

EPHEMERIS_TYPE = 0
CLASSIFICATION_TYPE = U
NORAD_CAT_ID   = 65586
ELEMENT_SET_NO = 999
REV_AT_EPOCH   = 27
BSTAR          = .18517944E-3
MEAN_MOTION_DOT = .966E-4
MEAN_MOTION_DDOT = 0

CCSDS_OMM_VERS = 2.0
CREATION_DATE  = 
ORIGINATOR     = 

OBJECT_NAME    = CYGNUS NG-23
OBJECT_ID      = 2025-208A
CENTER_NAME    = EARTH
REF_FRAME      = TEME
TIME_SYSTEM    = UTC
MEAN_ELEMENT_THEORY = SGP/SGP4

EPOCH          = 2026-02-17T04:23:19.361472
MEAN_MOTION    = 15.48657976
ECCENTRICITY   = .00110184
INCLINATION    = 51.6319
RA_OF_ASC_NODE = 173.7204
ARG_OF_PERICENTER = 107.0393
MEAN_ANOMALY   = 253.1803

EPHEMERIS_TYPE = 0
CLASSIFICATION_TYPE = U
NORAD_CAT_ID   = 65616
ELEMENT_SET_NO = 999
REV_AT_EPOCH   = 22
BSTAR          = .18517944E-3
MEAN_MOTION_DOT = .966E-4
MEAN_MOTION_DDOT = 0

CCSDS_OMM_VERS = 2.0
CREATION_DATE  = 
ORIGINATOR     = 

OBJECT_NAME    = ISS OBJECT XK
OBJECT_ID      = 1998-067XK
CENTER_NAME    = EARTH
REF_FRAME      = TEME
TIME_SYSTEM    = UTC
MEAN_ELEMENT_THEORY = SGP/SGP4

EPOCH          = 2026-02-17T06:50:20.793696
MEAN_MOTION    = 15.89938904
ECCENTRICITY   = .00062068
INCLINATION    = 51.6223
RA_OF_ASC_NODE = 154.8231
ARG_OF_PERICENTER = 340.0827
MEAN_ANOMALY   = 19.9935

EPHEMERIS_TYPE = 0
CLASSIFICATION_TYPE = U
NORAD_CAT_ID   = 65731
ELEMENT_SET_NO = 999
REV_AT_EPOCH   = 2363
BSTAR          = .11887094E-2
MEAN_MOTION_DOT = .361342E-2
MEAN_MOTION_DDOT = .59422605E-4

