ISS (ZARYA)             
1 25544U 98067A   26048.18286298  .00009660  00000+0  18518-3 0  9990
2 25544  51.6319 173.7204 0011018 107.0393 253.1803 15.48657976553154
CSS (TIANHE)            
1 48274U 21035A   26048.23206423  .00029154  00000+0  35627-3 0  9994
2 48274  41.4683 332.5551 0004162 122.3722 237.7519 15.59770251274413
ISS (NAUKA)             
1 49044U 21066A   26048.18286298  .00009660  00000+0  18518-3 0  9996
2 49044  51.6319 173.7204 0011018 107.0393 253.1803 15.48657976230449
FREGAT DEB              
1 49271U 11037PF  26048.03913288  .00038169  00000+0  60296-1 0  9999
2 49271  51.6522   2.5988 0940927  11.9451 350.2139 12.38826834210135
CSS (WENTIAN)           
1 53239U 22085A   26048.23206423  .00029154  00000+0  35627-3 0  9997
2 53239  41.4683 332.5551 0004162 122.3722 237.7519 15.59770251173845
CSS (MENGTIAN)          
1 54216U 22143A   26048.23206423  .00029154  00000+0  35627-3 0  9998
2 54216  41.4683 332.5551 0004162 122.3722 237.7519 15.59770251158642
PROGRESS-MS 31          
1 64751U 25146A   26048.18286298  .00009660  00000+0  18518-3 0  9991
2 64751  51.6319 173.7204 0011018 107.0393 253.1803 15.48657976  6756
TIANZHOU-9              
1 64786U 25149A   26048.23206423  .00029154  00000+0  35627-3 0  9990
2 64786  41.4683 332.5551 0004162 122.3722 237.7519 15.59770251255306
DRAGON CRS-33           
1 65304U 25186A   26048.18286298  .00009660  00000+0  18518-3 0  9990
2 65304  51.6319 173.7204 0011018 107.0393 253.1803 15.48657976   115
PROGRESS-MS 32          
1 65586U 25204A   26048.18286298  .00009660  00000+0  18518-3 0  9993
2 65586  51.6319 173.7204 0011018 107.0393 253.1803 15.48657976   274
CYGNUS NG-23            
1 65616U 25208A   26048.18286298  .00009660  00000+0  18518-3 0  9991
2 65616  51.6319 173.7204 0011018 107.0393 253.1803 15.48657976   223
ISS OBJECT XK           
1 65731U 98067XK  26048.28496289  .00361342  59423-4  11887-2 0  9993
2 65731  51.6223 154.8231 0006206 340.0827  19.9935 15.89938904 23631
